GALAXY 16 (G-16)        
1 29236U 06023A   26074.04803044 -.00000127  00000+0  00000+0 0  9994
2 29236   0.0260 214.4338 0002732 153.1175  83.3792  1.00270535 72020
EUTELSAT 33F            
1 29270U 06032A   26074.24836439  .00000156  00000+0  00000+0 0  9999
2 29270   1.4173  83.3285 0003467 277.8309 294.2000  1.00274639 46361
JCSAT-3A                
1 29272U 06033A   26073.87902972 -.00000346  00000+0  00000+0 0  9998
2 29272   0.0365 273.1842 0002074  90.9324 252.8059  1.00272390 46796
SYRACUSE 3B             
1 29273U 06033B   26068.64866772  .00000023  00000+0  00000+0 0  9996
2 29273   2.6424  81.3235 0004043 271.6877  51.1435  1.00272288 71674
KOREASAT 5 (MUGUNGWHA 5)
1 29349U 06034A   26073.99419670 -.00000358  00000+0  00000+0 0  9998
2 29349   1.5400  84.2021 0001953 311.3933 247.9731  1.00272844 40372
ZHONGXING-22A           
1 29398U 06038A   26073.97167678  .00000047  00000+0  00000+0 0  9996
2 29398  11.3235  38.1261 0000746 258.2525 101.5095  1.00071702 71439
DIRECTV 9S              
1 29494U 06043A   26074.26157800 -.00000113  00000+0  00000+0 0  9993
2 29494   2.1766  82.0525 0003229 286.2370 157.5450  1.00272092 50441
OPTUS D1                
1 29495U 06043B   26074.24034460 -.00000183  00000+0  00000+0 0  9995
2 29495   2.7911  80.8199 0003841 279.5056  51.0172  1.00271461 71170
BADR-4                  
1 29526U 06051A   26074.28679812  .00000145  00000+0  00000+0 0  9996
2 29526   1.7609  82.1581 0007222 270.2077 310.0175  1.00269979 50322
WILDBLUE-1              
1 29643U 06054A   26074.25958466 -.00000049  00000+0  00000+0 0  9995
2 29643   2.5590  81.6804 0001565 277.6168 155.8146  1.00272521 52858
MEASAT-3                
1 29648U 06056A   26074.24072474 -.00000200  00000+0  00000+0 0  9996
2 29648   4.4858  77.3199 0005553 232.2584 111.0564  0.99754900 49442
SKYNET 5A               
1 30794U 07007B   26074.01518363 -.00000270  00000+0  00000+0 0  9991
2 30794   5.0618  74.8772 0003854 287.5325 270.8598  1.00273889 69756
ANIK F3                 
1 31102U 07009A   26074.25811132 -.00000001  00000+0  00000+0 0  9995
2 31102   0.9530  85.0370 0002709 275.8385 146.1919  1.00272421 45622
ASTRA 1L                
1 31306U 07016A   26074.30943840 -.00000185  00000+0  00000+0 0  9990
2 31306   1.0774  82.2968 0003604 294.2959 243.1987  1.00269158 44040
GALAXY 17 (G-17)        
1 31307U 07016B   26074.19345771 -.00000206  00000+0  00000+0 0  9991
2 31307   2.7324  81.0904 0003381 284.0210 152.3255  1.00270961 68865
NIGCOMSAT 1             
1 31395U 07018A   26073.85580821 -.00000316  00000+0  00000+0 0  9991
2 31395  11.7131  33.6071 0001848 116.3883  72.9244  1.00231905 69114
WGS F1 (USA 195)        
1 32258U 07046A   26074.27939684 -.00000268  00000+0  00000+0 0  9999
2 32258   0.0748  87.1770 0000730 285.7422 217.9995  1.00272334 51393
