[{"OBJECT_NAME":"GALAXY 16 (G-16)","OBJECT_ID":"2006-023A","EPOCH":"2026-03-15T01:09:09.830016","MEAN_MOTION":1.00270535,"ECCENTRICITY":0.00027326,"INCLINATION":0.026,"RA_OF_ASC_NODE":214.4338,"ARG_OF_PERICENTER":153.1175,"MEAN_ANOMALY":83.3792,"EPHEMERIS_TYPE":0,"CLASSIFICATION_TYPE":"U","NORAD_CAT_ID":29236,"ELEMENT_SET_NO":999,"REV_AT_EPOCH":7202,"BSTAR":0,"MEAN_MOTION_DOT":-1.27e-6,"MEAN_MOTION_DDOT":0},{"OBJECT_NAME":"EUTELSAT 33F","OBJECT_ID":"2006-032A","EPOCH":"2026-03-15T05:57:38.683296","MEAN_MOTION":1.00274639,"ECCENTRICITY":0.00034679,"INCLINATION":1.4173,"RA_OF_ASC_NODE":83.3285,"ARG_OF_PERICENTER":277.8309,"MEAN_ANOMALY":294.2,"EPHEMERIS_TYPE":0,"CLASSIFICATION_TYPE":"U","NORAD_CAT_ID":29270,"ELEMENT_SET_NO":999,"REV_AT_EPOCH":4636,"BSTAR":0,"MEAN_MOTION_DOT":1.56e-6,"MEAN_MOTION_DDOT":0},{"OBJECT_NAME":"JCSAT-3A","OBJECT_ID":"2006-033A","EPOCH":"2026-03-14T21:05:48.167808","MEAN_MOTION":1.0027239,"ECCENTRICITY":0.0002074,"INCLINATION":0.0365,"RA_OF_ASC_NODE":273.1842,"ARG_OF_PERICENTER":90.9324,"MEAN_ANOMALY":252.8059,"EPHEMERIS_TYPE":0,"CLASSIFICATION_TYPE":"U","NORAD_CAT_ID":29272,"ELEMENT_SET_NO":999,"REV_AT_EPOCH":4679,"BSTAR":0,"MEAN_MOTION_DOT":-3.46e-6,"MEAN_MOTION_DDOT":0},{"OBJECT_NAME":"SYRACUSE 3B","OBJECT_ID":"2006-033B","EPOCH":"2026-03-09T15:34:04.891008","MEAN_MOTION":1.00272288,"ECCENTRICITY":0.00040437,"INCLINATION":2.6424,"RA_OF_ASC_NODE":81.3235,"ARG_OF_PERICENTER":271.6877,"MEAN_ANOMALY":51.1435,"EPHEMERIS_TYPE":0,"CLASSIFICATION_TYPE":"U","NORAD_CAT_ID":29273,"ELEMENT_SET_NO":999,"REV_AT_EPOCH":7167,"BSTAR":0,"MEAN_MOTION_DOT":2.3e-7,"MEAN_MOTION_DDOT":0},{"OBJECT_NAME":"KOREASAT 5 (MUGUNGWHA 5)","OBJECT_ID":"2006-034A","EPOCH":"2026-03-14T23:51:38.594880","MEAN_MOTION":1.00272844,"ECCENTRICITY":0.00019531,"INCLINATION":1.54,"RA_OF_ASC_NODE":84.2021,"ARG_OF_PERICENTER":311.3933,"MEAN_ANOMALY":247.9731,"EPHEMERIS_TYPE":0,"CLASSIFICATION_TYPE":"U","NORAD_CAT_ID":29349,"ELEMENT_SET_NO":999,"REV_AT_EPOCH":4037,"BSTAR":0,"MEAN_MOTION_DOT":-3.58e-6,"MEAN_MOTION_DDOT":0},{"OBJECT_NAME":"ZHONGXING-22A","OBJECT_ID":"2006-038A","EPOCH":"2026-03-14T23:19:12.873792","MEAN_MOTION":1.00071702,"ECCENTRICITY":7.466e-5,"INCLINATION":11.3235,"RA_OF_ASC_NODE":38.1261,"ARG_OF_PERICENTER":258.2525,"MEAN_ANOMALY":101.5095,"EPHEMERIS_TYPE":0,"CLASSIFICATION_TYPE":"U","NORAD_CAT_ID":29398,"ELEMENT_SET_NO":999,"REV_AT_EPOCH":7143,"BSTAR":0,"MEAN_MOTION_DOT":4.7e-7,"MEAN_MOTION_DDOT":0},{"OBJECT_NAME":"DIRECTV 9S","OBJECT_ID":"2006-043A","EPOCH":"2026-03-15T06:16:40.339200","MEAN_MOTION":1.00272092,"ECCENTRICITY":0.00032293,"INCLINATION":2.1766,"RA_OF_ASC_NODE":82.0525,"ARG_OF_PERICENTER":286.237,"MEAN_ANOMALY":157.545,"EPHEMERIS_TYPE":0,"CLASSIFICATION_TYPE":"U","NORAD_CAT_ID":29494,"ELEMENT_SET_NO":999,"REV_AT_EPOCH":5044,"BSTAR":0,"MEAN_MOTION_DOT":-1.13e-6,"MEAN_MOTION_DDOT":0},{"OBJECT_NAME":"OPTUS D1","OBJECT_ID":"2006-043B","EPOCH":"2026-03-15T05:46:05.773440","MEAN_MOTION":1.00271461,"ECCENTRICITY":0.00038414,"INCLINATION":2.7911,"RA_OF_ASC_NODE":80.8199,"ARG_OF_PERICENTER":279.5056,"MEAN_ANOMALY":51.0172,"EPHEMERIS_TYPE":0,"CLASSIFICATION_TYPE":"U","NORAD_CAT_ID":29495,"ELEMENT_SET_NO":999,"REV_AT_EPOCH":7117,"BSTAR":0,"MEAN_MOTION_DOT":-1.83e-6,"MEAN_MOTION_DDOT":0},{"OBJECT_NAME":"BADR-4","OBJECT_ID":"2006-051A","EPOCH":"2026-03-15T06:52:59.357568","MEAN_MOTION":1.00269979,"ECCENTRICITY":0.00072223,"INCLINATION":1.7609,"RA_OF_ASC_NODE":82.1581,"ARG_OF_PERICENTER":270.2077,"MEAN_ANOMALY":310.0175,"EPHEMERIS_TYPE":0,"CLASSIFICATION_TYPE":"U","NORAD_CAT_ID":29526,"ELEMENT_SET_NO":999,"REV_AT_EPOCH":5032,"BSTAR":0,"MEAN_MOTION_DOT":1.45e-6,"MEAN_MOTION_DDOT":0},{"OBJECT_NAME":"WILDBLUE-1","OBJECT_ID":"2006-054A","EPOCH":"2026-03-15T06:13:48.114624","MEAN_MOTION":1.00272521,"ECCENTRICITY":0.00015656,"INCLINATION":2.559,"RA_OF_ASC_NODE":81.6804,"ARG_OF_PERICENTER":277.6168,"MEAN_ANOMALY":155.8146,"EPHEMERIS_TYPE":0,"CLASSIFICATION_TYPE":"U","NORAD_CAT_ID":29643,"ELEMENT_SET_NO":999,"REV_AT_EPOCH":5285,"BSTAR":0,"MEAN_MOTION_DOT":-4.9e-7,"MEAN_MOTION_DDOT":0},{"OBJECT_NAME":"MEASAT-3","OBJECT_ID":"2006-056A","EPOCH":"2026-03-15T05:46:38.617536","MEAN_MOTION":0.997549,"ECCENTRICITY":0.00055533,"INCLINATION":4.4858,"RA_OF_ASC_NODE":77.3199,"ARG_OF_PERICENTER":232.2584,"MEAN_ANOMALY":111.0564,"EPHEMERIS_TYPE":0,"CLASSIFICATION_TYPE":"U","NORAD_CAT_ID":29648,"ELEMENT_SET_NO":999,"REV_AT_EPOCH":4944,"BSTAR":0,"MEAN_MOTION_DOT":-2.0e-6,"MEAN_MOTION_DDOT":0},{"OBJECT_NAME":"SKYNET 5A","OBJECT_ID":"2007-007B","EPOCH":"2026-03-15T00:21:51.865632","MEAN_MOTION":1.00273889,"ECCENTRICITY":0.0003854,"INCLINATION":5.0618,"RA_OF_ASC_NODE":74.8772,"ARG_OF_PERICENTER":287.5325,"MEAN_ANOMALY":270.8598,"EPHEMERIS_TYPE":0,"CLASSIFICATION_TYPE":"U","NORAD_CAT_ID":30794,"ELEMENT_SET_NO":999,"REV_AT_EPOCH":6975,"BSTAR":0,"MEAN_MOTION_DOT":-2.7e-6,"MEAN_MOTION_DDOT":0},{"OBJECT_NAME":"ANIK F3","OBJECT_ID":"2007-009A","EPOCH":"2026-03-15T06:11:40.818048","MEAN_MOTION":1.00272421,"ECCENTRICITY":0.00027093,"INCLINATION":0.953,"RA_OF_ASC_NODE":85.037,"ARG_OF_PERICENTER":275.8385,"MEAN_ANOMALY":146.1919,"EPHEMERIS_TYPE":0,"CLASSIFICATION_TYPE":"U","NORAD_CAT_ID":31102,"ELEMENT_SET_NO":999,"REV_AT_EPOCH":4562,"BSTAR":0,"MEAN_MOTION_DOT":-1.0e-8,"MEAN_MOTION_DDOT":0},{"OBJECT_NAME":"ASTRA 1L","OBJECT_ID":"2007-016A","EPOCH":"2026-03-15T07:25:35.477760","MEAN_MOTION":1.00269158,"ECCENTRICITY":0.00036044,"INCLINATION":1.0774,"RA_OF_ASC_NODE":82.2968,"ARG_OF_PERICENTER":294.2959,"MEAN_ANOMALY":243.1987,"EPHEMERIS_TYPE":0,"CLASSIFICATION_TYPE":"U","NORAD_CAT_ID":31306,"ELEMENT_SET_NO":999,"REV_AT_EPOCH":4404,"BSTAR":0,"MEAN_MOTION_DOT":-1.85e-6,"MEAN_MOTION_DDOT":0},{"OBJECT_NAME":"GALAXY 17 (G-17)","OBJECT_ID":"2007-016B","EPOCH":"2026-03-15T04:38:34.746144","MEAN_MOTION":1.00270961,"ECCENTRICITY":0.00033818,"INCLINATION":2.7324,"RA_OF_ASC_NODE":81.0904,"ARG_OF_PERICENTER":284.021,"MEAN_ANOMALY":152.3255,"EPHEMERIS_TYPE":0,"CLASSIFICATION_TYPE":"U","NORAD_CAT_ID":31307,"ELEMENT_SET_NO":999,"REV_AT_EPOCH":6886,"BSTAR":0,"MEAN_MOTION_DOT":-2.06e-6,"MEAN_MOTION_DDOT":0},{"OBJECT_NAME":"NIGCOMSAT 1","OBJECT_ID":"2007-018A","EPOCH":"2026-03-14T20:32:21.829344","MEAN_MOTION":1.00231905,"ECCENTRICITY":0.00018483,"INCLINATION":11.7131,"RA_OF_ASC_NODE":33.6071,"ARG_OF_PERICENTER":116.3883,"MEAN_ANOMALY":72.9244,"EPHEMERIS_TYPE":0,"CLASSIFICATION_TYPE":"U","NORAD_CAT_ID":31395,"ELEMENT_SET_NO":999,"REV_AT_EPOCH":6911,"BSTAR":0,"MEAN_MOTION_DOT":-3.16e-6,"MEAN_MOTION_DDOT":0},{"OBJECT_NAME":"WGS F1 (USA 195)","OBJECT_ID":"2007-046A","EPOCH":"2026-03-15T06:42:19.886976","MEAN_MOTION":1.00272334,"ECCENTRICITY":7.305e-5,"INCLINATION":0.0748,"RA_OF_ASC_NODE":87.177,"ARG_OF_PERICENTER":285.7422,"MEAN_ANOMALY":217.9995,"EPHEMERIS_TYPE":0,"CLASSIFICATION_TYPE":"U","NORAD_CAT_ID":32258,"ELEMENT_SET_NO":999,"REV_AT_EPOCH":5139,"BSTAR":0,"MEAN_MOTION_DOT":-2.68e-6,"MEAN_MOTION_DDOT":0}]
